IRIDIUM 126             
1 42809U 17039G   25329.35480423  .00000398  00000+0  13503-3 0  9997
2 42809  86.3963  78.8529 0001952  91.7324 268.4095 14.34221108440730
IRIDIUM 124             
1 42810U 17039H   25329.42775604  .00000460  00000+0  13086-3 0  9991
2 42810  86.4511  15.5453 0002094  99.1026 261.0412 14.43278424445724
IRIDIUM 128             
1 42811U 17039J   25329.48507490  .00000447  00000+0  15253-3 0  9997
2 42811  86.3950 110.3322 0002081 103.5491 256.5936 14.34215739440783
IRIDIUM 121             
1 42812U 17039K   25329.37383080  .00000132  00000+0  40122-4 0  9998
2 42812  86.3963  78.8712 0002198  97.7235 262.4210 14.34217567440612
IRIDIUM 133             
1 42955U 17061A   25329.44702218  .00000120  00000+0  35821-4 0  9994
2 42955  86.3950 110.4607 0002041  96.0361 264.1067 14.34218363425573
IRIDIUM 100             
1 42956U 17061B   25329.44067885  .00000570  00000+0  19646-3 0  9994
2 42956  86.3951 110.3868 0001907  92.8969 267.2445 14.34218037425573
IRIDIUM 122             
1 42957U 17061C   25329.47872903  .00000233  00000+0  76048-4 0  9999
2 42957  86.3949 110.3703 0001976  94.6422 265.5000 14.34216458425583
IRIDIUM 129             
1 42958U 17061D   25329.43433656  .00000154  00000+0  48030-4 0  9996
2 42958  86.3949 110.4537 0002215  83.4499 276.6949 14.34217537425592
